{
  "norad_id": 56299,
  "name": "STARLINK-30108",
  "history": [
    {
      "epoch": "2026-03-28T09:57:05.455872",
      "apogee_km": 486.6333643470689,
      "perigee_km": 484.42847966380486,
      "latitude_deg": 5.486158859704167,
      "longitude_deg": -150.29393792012706,
      "semi_major_axis_km": 6863.667922005437,
      "eccentricity": 0.00016062,
      "inclination_deg": 43.0025,
      "raan_deg": 91.8198,
      "arg_perigee_deg": 282.735,
      "mean_anomaly_deg": 77.3322,
      "mean_motion_rev_day": 15.26751541
    },
    {
      "epoch": "2026-03-29T01:39:10.232352",
      "apogee_km": 486.5777639216658,
      "perigee_km": 484.49807042176235,
      "latitude_deg": 34.07760363803248,
      "longitude_deg": -87.48863072018139,
      "semi_major_axis_km": 6863.674917171714,
      "eccentricity": 0.0001515,
      "inclination_deg": 43.0018,
      "raan_deg": 88.1293,
      "arg_perigee_deg": 275.685,
      "mean_anomaly_deg": 84.3828,
      "mean_motion_rev_day": 15.26749207
    }
  ]
}